1 44735U 19074Y   23279.54691745  .00002399  00000-0  17992-3 0  9992
2 44735  53.0538 220.1807 0002604  80.5424 279.5859 15.06395640215051
1 44735U 19074Y   23279.54691745  .00002399  00000-0  17992-3 0  9992
2 44735  53.0538 220.1807 0002604  80.5424 279.5859 15.06395640215220
1 44735U 19074Y   23280.07770304 -.00005423  00000-0 -34575-3 0  9990
2 44735  53.0538 217.7990 0001596  90.0610 270.0562 15.06365034215307
1 44735U 19074Y   23280.21039543  .00007240  00000-0  50470-3 0  9998
2 44735  53.0536 217.2015 0001262 104.6056 255.5073 15.06381096215327
1 44735U 19074Y   23280.54212852  .00020645  00000-0  14008-2 0  9990
2 44735  53.0536 215.7132 0001030 102.3221 257.7883 15.06399810215205
1 44735U 19074Y   23280.80751393  .00024576  00000-0  16624-2 0  9990
2 44735  53.0550 214.5215 0000929 101.6732 258.4361 15.06414552215249
1 44735U 19074Y   23280.80751393  .00024576  00000-0  16624-2 0  9990
2 44735  53.0550 214.5215 0000929 101.6732 258.4361 15.06414552215418
1 44735U 19074Y   23281.58334491  .00053882  00000-0  36155-2 0  9995
2 44735  53.0525 211.0392 0001469  72.9660 176.9187 15.06330194215530
1 44735U 19074Y   23281.91667824  .00011845  00000-0  81298-3 0  9993
2 44735  53.0526 209.5433 0001550  77.1066 181.3910 15.06389604  5831
1 44735U 19074Y   23282.53253128  .00027497  00000-0  18579-2 0  9991
2 44735  53.0531 206.7769 0001884  83.4890 276.6314 15.06395805215506
1 44735U 19074Y   23282.53253128  .00027497  00000-0  18579-2 0  9991
2 44735  53.0531 206.7769 0001884  83.4890 276.6314 15.06395805215674
1 44735U 19074Y   23282.93060841  .00025094  00000-0  16967-2 0  9993
2 44735  53.0534 204.9896 0001709  83.0644 277.0540 15.06418304215561
1 44735U 19074Y   23283.19598834  .00037072  00000-0  24916-2 0  9992
2 44735  53.0535 203.7986 0001637  90.8265 269.2911 15.06445125215605
1 44735U 19074Y   23283.19598834  .00037072  00000-0  24916-2 0  9992
2 44735  53.0535 203.7986 0001637  90.8265 269.2911 15.06445125215773
1 44735U 19074Y   23283.79312404 -.00000234  00000-0  31720-5 0  9990
2 44735  53.0536 201.1170 0001571 121.4234 238.6909 15.06372903215865
1 44735U 19074Y   23283.92582538  .00007223  00000-0  50387-3 0  9994
2 44735  53.0535 200.5217 0001275 106.1776 253.9353 15.06356990215716
1 44735U 19074Y   23284.45660262  .00055408  00000-0  37079-2 0  9994
2 44735  53.0553 198.1398 0001667 110.7045 249.4123 15.06416638215792
1 44735U 19074Y   23284.45660262  .00055408  00000-0  37079-2 0  9994
2 44735  53.0553 198.1398 0001667 110.7045 249.4123 15.06416638215961
1 44735U 19074Y   23285.45178975  .00034747  00000-0  23389-2 0  9992
2 44735  53.0541 193.6736 0003437  75.1592 284.9778 15.06416626215947
1 44735U 19074Y   23285.45178975  .00034747  00000-0  23389-2 0  9992
2 44735  53.0541 193.6736 0003437  75.1592 284.9778 15.06416626216117
1 44735U 19074Y   23285.91622170  .00012183  00000-0  83589-3 0  9993
2 44735  53.0549 191.5880 0001155  93.3049 266.8072 15.06376398216012
1 44735U 19074Y   23286.11527016  .00043804  00000-0  29434-2 0  9991
2 44735  53.0542 190.6955 0001218  88.3527 271.7602 15.06375236216219
1 44735U 19074Y   23286.44700732  .00040731  00000-0  27378-2 0  9996
2 44735  53.0538 189.2064 0001253  95.3935 264.7197 15.06397339216094
1 44735U 19074Y   23286.91142630  .00054315  00000-0  36323-2 0  9998
2 44735  53.0537 187.1211 0001238  97.2773 262.8357 15.06451125216167
1 44735U 19074Y   23287.44220630  .00005521  00000-0  38925-3 0  9990
2 44735  53.0537 184.7393 0003037  73.5818 286.5505 15.06404010216245
1 44735U 19074Y   23287.44220630  .00005521  00000-0  38925-3 0  9990
2 44735  53.0537 184.7393 0003037  73.5818 286.5505 15.06404010216414
1 44735U 19074Y   23287.90664702  .00011886  00000-0  81636-3 0  9991
2 44735  53.0533 182.6525 0002267  81.3289 278.7956 15.06359577216316
1 44735U 19074Y   23288.10568914  .00055912  00000-0  37439-2 0  9991
2 44735  53.0541 181.7554 0002027 103.7996 256.3219 15.06389510216511
1 44735U 19074Y   23288.43742228  .00057153  00000-0  38226-2 0  9993
2 44735  53.0538 180.2666 0002040 104.3244 255.7972 15.06421296216396
1 44735U 19074Y   23288.90183700  .00034830  00000-0  23424-2 0  9990
2 44735  53.0528 178.1856 0001612  87.0992 273.0182 15.06451310216467
1 44735U 19074Y   23289.10086999  .00034229  00000-0  23018-2 0  9996
2 44735  53.0529 177.2925 0001586  84.1689 275.9480 15.06463007216497
1 44735U 19074Y   23289.10086999  .00034229  00000-0  23018-2 0  9996
2 44735  53.0529 177.2925 0001586  84.1689 275.9480 15.06463007216666
1 44735U 19074Y   23290.09608265  .00029287  00000-0  19766-2 0  9995
2 44735  53.0538 172.8234 0001248  63.0501 297.0615 15.06405734216819
1 44735U 19074Y   23290.16242880  .00015657  00000-0  10678-2 0  9999
2 44735  53.0532 172.5264 0001477  99.5221 260.5935 15.06396185216651
1 44735U 19074Y   23290.16242880  .00015657  00000-0  10678-2 0  9999
2 44735  53.0532 172.5264 0001477  99.5221 260.5935 15.06396185216820
1 44735U 19074Y   23291.09127148  .00020220  00000-0  13711-2 0  9994
2 44735  53.0532 168.3558 0001481 103.7816 256.3338 15.06436200216791
1 44735U 19074Y   23291.35666496  .00012780  00000-0  87510-3 0  9998
2 44735  53.0534 167.1641 0001579  86.1405 273.9765 15.06409198217009
1 44735U 19074Y   23291.95378999  .00001738  00000-0  13554-3 0  9990
2 44735  53.0568 164.4865 0002906  97.2731 262.8589 15.06401570216921
1 44735U 19074Y   23292.08648614 -.00000180  00000-0  68310-5 0  9992
2 44735  53.0568 163.8928 0002226 101.3039 258.8200 15.06387766216944
1 44735U 19074Y   23292.08648614 -.00000180  00000-0  68310-5 0  9992
2 44735  53.0568 163.8928 0002226 101.3039 258.8200 15.06387766217114
1 44735U 19074Y   23293.01532965  .00026787  00000-0  18084-2 0  9997
2 44735  53.0525 159.7197 0001442  91.6539 268.4615 15.06441275217083
1 44735U 19074Y   23293.01532965  .00026787  00000-0  18084-2 0  9997
2 44735  53.0525 159.7197 0001442  91.6539 268.4615 15.06441275217252
1 44735U 19074Y   23293.87785304  .00020204  00000-0  13719-2 0  9996
2 44735  53.0524 155.8484 0001388 108.3912 251.7227 15.06386316217211
1 44735U 19074Y   23293.94420073  .00016846  00000-0  11477-2 0  9999
2 44735  53.0516 155.5513 0001250 113.1920 246.9200 15.06381212217399
1 44735U 19074Y   23294.60767506  .00017701  00000-0  12043-2 0  9999
2 44735  53.0527 152.5702 0001425  83.0951 277.0200 15.06397061217328
1 44735U 19074Y   23294.60767506  .00017701  00000-0  12043-2 0  9999
2 44735  53.0527 152.5702 0001425  83.0951 277.0200 15.06397061217496
1 44735U 19074Y   23294.87305947  .00018384  00000-0  12494-2 0  9993
2 44735  53.0526 151.3800 0001501  78.2936 281.8221 15.06413595217368
1 44735U 19074Y   23295.33748982  .00007112  00000-0  49587-3 0  9996
2 44735  53.0541 149.2950 0001803  84.2832 275.8362 15.06401781217435
1 44735U 19074Y   23295.33748982  .00007112  00000-0  49587-3 0  9996
2 44735  53.0541 149.2950 0001803  84.2832 275.8362 15.06401781217604
1 44735U 19074Y   23295.86827332  .00013026  00000-0  89213-3 0  9992
2 44735  53.0536 146.9119 0001545  90.6543 269.4623 15.06385505217684
1 44735U 19074Y   23296.86348339  .00000710  00000-0  66625-4 0  9997
2 44735  53.0539 142.4435 0001635  89.2946 270.8230 15.06380527217836
1 44735U 19074Y   23297.19521323  .00011150  00000-0  76607-3 0  9990
2 44735  53.0531 140.9546 0001405  92.1864 267.9286 15.06407349217886
1 44735U 19074Y   23297.59329483  .00004569  00000-0  32539-3 0  9999
2 44735  53.0532 139.1680 0001427  93.0829 267.0323 15.06401347217774
1 44735U 19074Y   23298.58848985  .00003418  00000-0  24818-3 0  9995
2 44735  53.0528 134.7000 0001450  94.4872 265.6283 15.06410835217923
1 44735U 19074Y   23298.58848985  .00003418  00000-0  24818-3 0  9995
2 44735  53.0528 134.7000 0001450  94.4872 265.6283 15.06410835218092
1 44735U 19074Y   23299.51734032  .00000740  00000-0  68571-4 0  9996
2 44735  53.0525 130.5298 0001404  93.4033 266.7117 15.06406901218232
1 44735U 19074Y   23299.58368606  .00001376  00000-0  11121-3 0  9997
2 44735  53.0526 130.2320 0001418  93.1179 266.9972 15.06408978218078
1 44735U 19074Y   23299.84906992  .00003995  00000-0  28684-3 0  9993
2 44735  53.0524 129.0407 0001451  92.8617 267.2538 15.06415495218117
1 44735U 19074Y   23300.18079967  .00008580  00000-0  59384-3 0  9992
2 44735  53.0521 127.5513 0001414  92.0565 268.0586 15.06423012218338
1 44735U 19074Y   23300.51253010  .00010961  00000-0  75313-3 0  9998
2 44735  53.0518 126.0620 0001420  91.6109 268.5043 15.06423344218211
1 44735U 19074Y   23300.91060245  .00011614  00000-0  79657-3 0  9999
2 44735  53.0518 124.2748 0001411  90.6123 269.5027 15.06433426218278
1 44735U 19074Y   23301.50772944  .00000319  00000-0  40322-4 0  9999
2 44735  53.0518 121.5930 0002351  83.9953 276.1304 15.06407508218534
1 44735U 19074Y   23301.77311810 -.00001800  00000-0 -10197-3 0  9993
2 44735  53.0523 120.3973 0002265  98.9417 261.1828 15.06398161218404
1 44735U 19074Y   23301.77311810 -.00001800  00000-0 -10197-3 0  9993
2 44735  53.0523 120.3973 0002265  98.9417 261.1828 15.06398161218572
1 44735U 19074Y   23302.90101825  .00012353  00000-0  84652-3 0  9992
2 44735  53.0526 115.3387 0001491  76.8552 283.2603 15.06408961218579
1 44735U 19074Y   23302.90101825  .00012353  00000-0  84652-3 0  9992
2 44735  53.0526 115.3387 0001491  76.8552 283.2603 15.06408961218748
1 44735U 19074Y   23303.49814293 -.00001627  00000-0 -90361-4 0  9996
2 44735  53.0528 112.6540 0001691  76.3469 283.7708 15.06401314218831
1 44735U 19074Y   23303.82987919  .00003327  00000-0  24218-3 0  9993
2 44735  53.0535 111.1671 0001554  74.6538 285.4623 15.06397546218717
1 44735U 19074Y   23304.16161206  .00003543  00000-0  25659-3 0  9994
2 44735  53.0536 109.6782 0001571  74.3335 285.7827 15.06401942218764
1 44735U 19074Y   23304.75873062  .00006911  00000-0  48229-3 0  9999
2 44735  53.0535 106.9986 0001407  80.0197 280.0951 15.06408937219024
1 44735U 19074Y   23304.89142324  .00006729  00000-0  47007-3 0  9994
2 44735  53.0535 106.4031 0001402  80.4051 279.7097 15.06410414218879
